{"type": "FeatureCollection", "features": [ {"type": "Feature", "properties": {"norad_id": 29843, "name": "FENGYUN 1C DEB", "group": "fengyun-1c-debris", "lat": 78.51594292352252, "lon": 149.3066992988811, "alt_km": 920.7541003637925, "timestamp": "2025-12-27T23:26:37.634395+00:00", "meta": {"OBJECT_NAME": "FENGYUN 1C DEB", "OBJECT_ID": "1999-025EM", "EPOCH": "2025-12-27T11:33:56.630016", "MEAN_MOTION": 14.28583835, "ECCENTRICITY": 0.01916, "INCLINATION": 99.0366, "RA_OF_ASC_NODE": 200.3597, "ARG_OF_PERICENTER": 247.8879, "MEAN_ANOMALY": 171.758, "EPHEMERIS_TYPE": 0, "CLASSIFICATION_TYPE": "U", "NORAD_CAT_ID": 29843, "ELEMENT_SET_NO": 999, "REV_AT_EPOCH": 98492, "BSTAR": 0.00029563, "MEAN_MOTION_DOT": 8.49e-06, "MEAN_MOTION_DDOT": 0}, "tle": {"line1": "1 29843U 99025EM  25361.48190544  .00000849  00000+0  29563-3 0  9991", "line2": "2 29843  99.0366 200.3597 0191600 247.8879 171.7580 14.28583835984927"}}, "geometry": {"type": "Point", "coordinates": [149.3066992988811, 78.51594292352252]}}, {"type": "Feature", "properties": {"norad_id": 29844, "name": "FENGYUN 1C DEB", "group": "fengyun-1c-debris", "lat": -45.74953369667689, "lon": -86.92343748961481, "alt_km": 910.2892399806378, "timestamp": "2025-12-27T23:26:37.634405+00:00", "meta": {"OBJECT_NAME": "FENGYUN 1C DEB", "OBJECT_ID": "1999-025EN", "EPOCH": "2025-12-27T06:53:49.663968", "MEAN_MOTION": 14.32019132, "ECCENTRICITY": 0.0168716, "INCLINATION": 98.9369, "RA_OF_ASC_NODE": 263.0707, "ARG_OF_PERICENTER": 124.6565, "MEAN_ANOMALY": 237.0652, "EPHEMERIS_TYPE": 0, "CLASSIFICATION_TYPE": "U", "NORAD_CAT_ID": 29844, "ELEMENT_SET_NO": 999, "REV_AT_EPOCH": 98549, "BSTAR": 0.00044392, "MEAN_MOTION_DOT": 1.345e-05, "MEAN_MOTION_DDOT": 0}, "tle": {"line1": "1 29844U 99025EN  25361.28738037  .00001345  00000+0  44392-3 0  9994", "line2": "2 29844  98.9369 263.0707 0168716 124.6565 237.0652 14.32019132985492"}}, "geometry": {"type": "Point", "coordinates": [-86.92343748961481, -45.74953369667689]}}, {"type": "Feature", "properties": {"norad_id": 29845, "name": "FENGYUN 1C DEB", "group": "fengyun-1c-debris", "lat": -79.40563554614066, "lon": 128.62757363494035, "alt_km": 866.7617635865772, "timestamp": "2025-12-27T23:26:37.634415+00:00", "meta": {"OBJECT_NAME": "FENGYUN 1C DEB", "OBJECT_ID": "1999-025EP", "EPOCH": "2025-12-27T12:41:15.742752", "MEAN_MOTION": 14.26522122, "ECCENTRICITY": 0.0078177, "INCLINATION": 98.5222, "RA_OF_ASC_NODE": 1.4793, "ARG_OF_PERICENTER": 88.3163, "MEAN_ANOMALY": 35.0501, "EPHEMERIS_TYPE": 0, "CLASSIFICATION_TYPE": "U", "NORAD_CAT_ID": 29845, "ELEMENT_SET_NO": 999, "REV_AT_EPOCH": 98320, "BSTAR": 0.00057403, "MEAN_MOTION_DOT": 1.387e-05, "MEAN_MOTION_DDOT": 0}, "tle": {"line1": "1 29845U 99025EP  25361.52865443  .00001387  00000+0  57403-3 0  9997", "line2": "2 29845  98.5222   1.4793 0078177  88.3163  35.0501 14.26522122983204"}}, "geometry": {"type": "Point", "coordinates": [128.62757363494035, -79.40563554614066]}}, {"type": "Feature", "properties": {"norad_id": 29846, "name": "FENGYUN 1C DEB", "group": "fengyun-1c-debris", "lat": -66.9019952017496, "lon": -157.48025866813447, "alt_km": 776.394423066723, "timestamp": "2025-12-27T23:26:37.634425+00:00", "meta": {"OBJECT_NAME": "FENGYUN 1C DEB", "OBJECT_ID": "1999-025EQ", "EPOCH": "2025-12-27T02:12:59.804640", "MEAN_MOTION": 14.19101508, "ECCENTRICITY": 0.00837906, "INCLINATION": 98.6533, "RA_OF_ASC_NODE": 42.5759, "ARG_OF_PERICENTER": 262.4421, "MEAN_ANOMALY": 150.2233, "EPHEMERIS_TYPE": 0, "CLASSIFICATION_TYPE": "U", "NORAD_CAT_ID": 29846, "ELEMENT_SET_NO": 999, "REV_AT_EPOCH": 98063, "BSTAR": 0.00016484488, "MEAN_MOTION_DOT": 3.13e-06, "MEAN_MOTION_DDOT": 0}, "tle": {"line1": "1 29846U 99025EQ  25361.09235885  .00000313  00000+0  16484-3 0  9993", "line2": "2 29846  98.6533  42.5759 0083790 262.4421 150.2233 14.19101508980637"}}, "geometry": {"type": "Point", "coordinates": [-157.48025866813447, -66.9019952017496]}}, {"type": "Feature", "properties": {"norad_id": 29847, "name": "FENGYUN 1C DEB", "group": "fengyun-1c-debris", "lat": -26.708303721832973, "lon": 2.0767869976962507, "alt_km": 832.5528401824731, "timestamp": "2025-12-27T23:26:37.634435+00:00", "meta": {"OBJECT_NAME": "FENGYUN 1C DEB", "OBJECT_ID": "1999-025ER", "EPOCH": "2025-12-27T12:08:52.749312", "MEAN_MOTION": 14.03015558, "ECCENTRICITY": 0.0084686, "INCLINATION": 98.9042, "RA_OF_ASC_NODE": 357.0925, "ARG_OF_PERICENTER": 357.9381, "MEAN_ANOMALY": 119.5786, "EPHEMERIS_TYPE": 0, "CLASSIFICATION_TYPE": "U", "NORAD_CAT_ID": 29847, "ELEMENT_SET_NO": 999, "REV_AT_EPOCH": 96942, "BSTAR": 0.00033426, "MEAN_MOTION_DOT": 4.92e-06, "MEAN_MOTION_DDOT": 0}, "tle": {"line1": "1 29847U 99025ER  25361.50616608  .00000492  00000+0  33426-3 0  9999", "line2": "2 29847  98.9042 357.0925 0084686 357.9381 119.5786 14.03015558969422"}}, "geometry": {"type": "Point", "coordinates": [2.0767869976962507, -26.708303721832973]}}, {"type": "Feature", "properties": {"norad_id": 29848, "name": "FENGYUN 1C DEB", "group": "fengyun-1c-debris", "lat": 22.626443488451564, "lon": -135.8989565978238, "alt_km": 878.6526112690299, "timestamp": "2025-12-27T23:26:37.634445+00:00", "meta": {"OBJECT_NAME": "FENGYUN 1C DEB", "OBJECT_ID": "1999-025ES", "EPOCH": "2025-12-27T05:20:01.744224", "MEAN_MOTION": 14.20649636, "ECCENTRICITY": 0.0116246, "INCLINATION": 98.248, "RA_OF_ASC_NODE": 226.8627, "ARG_OF_PERICENTER": 252.7919, "MEAN_ANOMALY": 232.2094, "EPHEMERIS_TYPE": 0, "CLASSIFICATION_TYPE": "U", "NORAD_CAT_ID": 29848, "ELEMENT_SET_NO": 999, "REV_AT_EPOCH": 97323, "BSTAR": 0.0013859, "MEAN_MOTION_DOT": 3.155e-05, "MEAN_MOTION_DDOT": 0}, "tle": {"line1": "1 29848U 99025ES  25361.22224241  .00003155  00000+0  13859-2 0  9993", "line2": "2 29848  98.2480 226.8627 0116246 252.7919 232.2094 14.20649636973239"}}, "geometry": {"type": "Point", "coordinates": [-135.8989565978238, 22.626443488451564]}}, {"type": "Feature", "properties": {"norad_id": 29849, "name": "FENGYUN 1C DEB", "group": "fengyun-1c-debris", "lat": 80.97909123882609, "lon": -5.684417677764895, "alt_km": 867.4644352051264, "timestamp": "2025-12-27T23:26:37.634455+00:00", "meta": {"OBJECT_NAME": "FENGYUN 1C DEB", "OBJECT_ID": "1999-025ET", "EPOCH": "2025-12-27T04:31:41.013696", "MEAN_MOTION": 14.04934593, "ECCENTRICITY": 0.00798135, "INCLINATION": 99.0103, "RA_OF_ASC_NODE": 85.4647, "ARG_OF_PERICENTER": 3.842, "MEAN_ANOMALY": 61.4327, "EPHEMERIS_TYPE": 0, "CLASSIFICATION_TYPE": "U", "NORAD_CAT_ID": 29849, "ELEMENT_SET_NO": 999, "REV_AT_EPOCH": 96573, "BSTAR": 0.0011327907, "MEAN_MOTION_DOT": 1.83e-05, "MEAN_MOTION_DDOT": 0}, "tle": {"line1": "1 29849U 99025ET  25361.18866914  .00001830  00000+0  11328-2 0  9995", "line2": "2 29849  99.0103  85.4647 0079813   3.8420  61.4327 14.04934593965730"}}, "geometry": {"type": "Point", "coordinates": [-5.684417677764895, 80.97909123882609]}}, {"type": "Feature", "properties": {"norad_id": 29850, "name": "FENGYUN 1C DEB", "group": "fengyun-1c-debris", "lat": 66.78902500236636, "lon": 126.38382519040913, "alt_km": 939.1335429695882, "timestamp": "2025-12-27T23:26:37.634466+00:00", "meta": {"OBJECT_NAME": "FENGYUN 1C DEB", "OBJECT_ID": "1999-025EU", "EPOCH": "2025-12-27T09:45:05.806080", "MEAN_MOTION": 13.99909745, "ECCENTRICITY": 0.0101886, "INCLINATION": 98.1258, "RA_OF_ASC_NODE": 286.4159, "ARG_OF_PERICENTER": 247.8929, "MEAN_ANOMALY": 231.1625, "EPHEMERIS_TYPE": 0, "CLASSIFICATION_TYPE": "U", "NORAD_CAT_ID": 29850, "ELEMENT_SET_NO": 999, "REV_AT_EPOCH": 96225, "BSTAR": 0.0011314, "MEAN_MOTION_DOT": 1.7e-05, "MEAN_MOTION_DDOT": 0}, "tle": {"line1": "1 29850U 99025EU  25361.40631720  .00001700  00000+0  11314-2 0  9998", "line2": "2 29850  98.1258 286.4159 0101886 247.8929 231.1625 13.99909745962259"}}, "geometry": {"type": "Point", "coordinates": [126.38382519040913, 66.78902500236636]}}, {"type": "Feature", "properties": {"norad_id": 29851, "name": "FENGYUN 1C DEB", "group": "fengyun-1c-debris", "lat": -69.10719060780895, "lon": -163.0776427143912, "alt_km": 911.382235485833, "timestamp": "2025-12-27T23:26:37.634476+00:00", "meta": {"OBJECT_NAME": "FENGYUN 1C DEB", "OBJECT_ID": "1999-025EV", "EPOCH": "2025-12-27T01:44:07.465632", "MEAN_MOTION": 13.8361158, "ECCENTRICITY": 0.01425661, "INCLINATION": 99.5825, "RA_OF_ASC_NODE": 42.2672, "ARG_OF_PERICENTER": 189.6451, "MEAN_ANOMALY": 237.1924, "EPHEMERIS_TYPE": 0, "CLASSIFICATION_TYPE": "U", "NORAD_CAT_ID": 29851, "ELEMENT_SET_NO": 999, "REV_AT_EPOCH": 95565, "BSTAR": 0.00037344508, "MEAN_MOTION_DOT": 3.99e-06, "MEAN_MOTION_DDOT": 0}, "tle": {"line1": "1 29851U 99025EV  25361.07230863  .00000399  00000+0  37345-3 0  9991", "line2": "2 29851  99.5825  42.2672 0142566 189.6451 237.1924 13.83611580955650"}}, "geometry": {"type": "Point", "coordinates": [-163.0776427143912, -69.10719060780895]}}, {"type": "Feature", "properties": {"norad_id": 29852, "name": "FENGYUN 1C DEB", "group": "fengyun-1c-debris", "lat": -68.44220056281364, "lon": 37.02363823209643, "alt_km": 974.1798193182531, "timestamp": "2025-12-27T23:26:37.634486+00:00", "meta": {"OBJECT_NAME": "FENGYUN 1C DEB", "OBJECT_ID": "1999-025EW", "EPOCH": "2025-12-27T12:32:42.461088", "MEAN_MOTION": 14.07152835, "ECCENTRICITY": 0.0135037, "INCLINATION": 99.3711, "RA_OF_ASC_NODE": 11.8458, "ARG_OF_PERICENTER": 109.231, "MEAN_ANOMALY": 41.195, "EPHEMERIS_TYPE": 0, "CLASSIFICATION_TYPE": "U", "NORAD_CAT_ID": 29852, "ELEMENT_SET_NO": 999, "REV_AT_EPOCH": 96192, "BSTAR": 0.001598, "MEAN_MOTION_DOT": 2.861e-05, "MEAN_MOTION_DDOT": 0}, "tle": {"line1": "1 29852U 99025EW  25361.52271367  .00002861  00000+0  15980-2 0  9992", "line2": "2 29852  99.3711  11.8458 0135037 109.2310  41.1950 14.07152835961923"}}, "geometry": {"type": "Point", "coordinates": [37.02363823209643, -68.44220056281364]}}]}